{
    "links": {
        "self": "http://www.neowsapp.com/rest/v1/neo/3760219?api_key=iIulBulltgU6a56xZRHN4H3l9WmuAYTsLGpBGhQ2"
    },
    "id": "3760219",
    "neo_reference_id": "3760219",
    "name": "(2016 TS)",
    "designation": "2016 TS",
    "nasa_jpl_url": "http://ssd.jpl.nasa.gov/sbdb.cgi?sstr=3760219",
    "absolute_magnitude_h": 25.4,
    "estimated_diameter": {
        "kilometers": {
            "estimated_diameter_min": 0.022108281,
            "estimated_diameter_max": 0.0494356193
        },
        "meters": {
            "estimated_diameter_min": 22.1082810359,
            "estimated_diameter_max": 49.435619262
        },
        "miles": {
            "estimated_diameter_min": 0.0137374447,
            "estimated_diameter_max": 0.0307178602
        },
        "feet": {
            "estimated_diameter_min": 72.5337327539,
            "estimated_diameter_max": 162.1903570994
        }
    },
    "is_potentially_hazardous_asteroid": false,
    "close_approach_data": [
        {
            "close_approach_date": "2016-09-22",
            "close_approach_date_full": "2016-Sep-22 06:31",
            "epoch_date_close_approach": 1474525860000,
            "relative_velocity": {
                "kilometers_per_second": "7.5573385379",
                "kilometers_per_hour": "27206.4187364502",
                "miles_per_hour": "16905.0105754348"
            },
            "miss_distance": {
                "astronomical": "0.0144109962",
                "lunar": "5.6058775218",
                "kilometers": "2155854.336098094",
                "miles": "1339585.7670339372"
            },
            "orbiting_body": "Earth"
        }
    ],
    "orbital_data": {
        "orbit_id": "4",
        "orbit_determination_date": "2017-04-06 08:23:27",
        "first_observation_date": "2016-09-25",
        "last_observation_date": "2016-10-08",
        "data_arc_in_days": 13,
        "observations_used": 26,
        "orbit_uncertainty": "8",
        "minimum_orbit_intersection": ".0110202",
        "jupiter_tisserand_invariant": "3.347",
        "epoch_osculation": "2457660.5",
        "eccentricity": ".5619441027297262",
        "semi_major_axis": "2.319638099573435",
        "inclination": "2.590186265856123",
        "ascending_node_longitude": "175.3120209624582",
        "orbital_period": "1290.413140404014",
        "perihelion_distance": "1.016131149050954",
        "perihelion_argument": "179.5744441445134",
        "aphelion_distance": "3.623145050095916",
        "perihelion_time": "2457650.145976308245",
        "mean_anomaly": "2.88856987915109",
        "mean_motion": ".2789804200903349",
        "equinox": "J2000",
        "orbit_class": {
            "orbit_class_type": "APO",
            "orbit_class_description": "Near-Earth asteroid orbits which cross the Earth’s orbit similar to that of 1862 Apollo",
            "orbit_class_range": "a (semi-major axis) > 1.0 AU; q (perihelion) < 1.017 AU"
        }
    },
    "is_sentry_object": false
}